start=new Date('2023-07-01T00:00:00.000Z').valueOf();
sats=[{"FILE":"3945452","SITE":"AFETR","PERIAPSIS":"546.222","MEAN_ANOMALY":"272.2454","ARG_OF_PERICENTER":"87.8688","TLE_LINE1":"1 45232U 20012BG  23180.18409482  .00015465  00000-0  10542-2 0  9996","TIME_SYSTEM":"UTC","CENTER_NAME":"EARTH","ECCENTRICITY":"0.00013370","EPHEMERIS_TYPE":"0","MEAN_MOTION_DOT":"0.00015465","NORAD_CAT_ID":"45232","EPOCH":"2023-06-29T04:25:05.792448","TLE_LINE2":"2 45232  53.0542 106.2226 0001337  87.8688 272.2454 15.06421291186052","OBJECT_TYPE":"PAYLOAD","MEAN_MOTION":"15.06421291","INCLINATION":"53.0542","MEAN_MOTION_DDOT":"0.0000000000000","PERIOD":"95.591","CLASSIFICATION_TYPE":"U","RA_OF_ASC_NODE":"106.2226","COUNTRY_CODE":"US","BSTAR":"0.00105420000000","OBJECT_ID":"2020-012BG","RCS_SIZE":"LARGE","REV_AT_EPOCH":"18605","GP_ID":"234617580","DECAY_DATE":null,"SEMIMAJOR_AXIS":"6925.283","OBJECT_NAME":"STARLINK-1235","LAUNCH_DATE":"2020-02-17","MEAN_ELEMENT_THEORY":"SGP4","REF_FRAME":"TEME","APOAPSIS":"548.074","ELEMENT_SET_NO":"999"},{"CLASSIFICATION_TYPE":"U","RA_OF_ASC_NODE":"126.3235","COUNTRY_CODE":"US","OBJECT_ID":"2020-012BH","BSTAR":"0.00022577000000","REV_AT_EPOCH":"18578","RCS_SIZE":"LARGE","GP_ID":"234617577","DECAY_DATE":null,"SEMIMAJOR_AXIS":"6925.324","OBJECT_NAME":"STARLINK-1238","LAUNCH_DATE":"2020-02-17","MEAN_ELEMENT_THEORY":"SGP4","APOAPSIS":"548.093","REF_FRAME":"TEME","ELEMENT_SET_NO":"999","FILE":"3945452","SITE":"AFETR","MEAN_ANOMALY":"278.3428","PERIAPSIS":"546.286","TLE_LINE1":"1 45233U 20012BH  23180.16476383  .00003084  00000-0  22577-3 0  9995","ARG_OF_PERICENTER":"81.7708","ECCENTRICITY":"0.00013050","EPHEMERIS_TYPE":"0","TIME_SYSTEM":"UTC","CENTER_NAME":"EARTH","NORAD_CAT_ID":"45233","MEAN_MOTION_DOT":"0.00003084","TLE_LINE2":"2 45233  53.0529 126.3235 0001305  81.7708 278.3428 15.06407884185781","EPOCH":"2023-06-29T03:57:15.594912","OBJECT_TYPE":"PAYLOAD","MEAN_MOTION_DDOT":"0.0000000000000","MEAN_MOTION":"15.06407884","INCLINATION":"53.0529","PERIOD":"95.592"},{"REF_FRAME":"TEME","APOAPSIS":"547.992","ELEMENT_SET_NO":"999","MEAN_ELEMENT_THEORY":"SGP4","OBJECT_NAME":"STARLINK-1243","LAUNCH_DATE":"2020-02-17","DECAY_DATE":null,"GP_ID":"234616869","SEMIMAJOR_AXIS":"6925.339","RCS_SIZE":"LARGE","REV_AT_EPOCH":"18554","COUNTRY_CODE":"US","BSTAR":"0.00004762500000","OBJECT_ID":"2020-012BJ","RA_OF_ASC_NODE":"146.1451","CLASSIFICATION_TYPE":"U","PERIOD":"95.592","OBJECT_TYPE":"PAYLOAD","MEAN_MOTION":"15.06403023","INCLINATION":"53.0553","MEAN_MOTION_DDOT":"0.0000000000000","MEAN_MOTION_DOT":"0.00000428","NORAD_CAT_ID":"45234","EPOCH":"2023-06-29T04:52:59.528064","TLE_LINE2":"2 45234  53.0553 146.1451 0001137  85.6852 274.4267 15.06403023185548","ARG_OF_PERICENTER":"85.6852","TLE_LINE1":"1 45234U 20012BJ  23180.20346676  .00000428  00000-0  47625-4 0  9993","TIME_SYSTEM":"UTC","CENTER_NAME":"EARTH","EPHEMERIS_TYPE":"0","ECCENTRICITY":"0.00011370","PERIAPSIS":"546.417","MEAN_ANOMALY":"274.4267","FILE":"3945426","SITE":"AFETR"},{"SITE":"AFETR","FILE":"3946214","PERIAPSIS":"546.476","MEAN_ANOMALY":"265.6495","TIME_SYSTEM":"UTC","CENTER_NAME":"EARTH","EPHEMERIS_TYPE":"0","ECCENTRICITY":"0.00010730","ARG_OF_PERICENTER":"94.4617","TLE_LINE1":"1 45235U 20012BK  23181.58200821  .00001144  00000-0  95677-4 0  9993","EPOCH":"2023-06-30T13:58:05.509344","TLE_LINE2":"2 45235  53.0545 139.9622 0001073  94.4617 265.6495 15.06398233185750","MEAN_MOTION_DOT":"0.00001144","NORAD_CAT_ID":"45235","INCLINATION":"53.0545","MEAN_MOTION":"15.06398233","MEAN_MOTION_DDOT":"0.0000000000000","OBJECT_TYPE":"PAYLOAD","PERIOD":"95.592","CLASSIFICATION_TYPE":"U","RA_OF_ASC_NODE":"139.9622","BSTAR":"0.00009567700000","OBJECT_ID":"2020-012BK","COUNTRY_CODE":"US","RCS_SIZE":"LARGE","REV_AT_EPOCH":"18575","DECAY_DATE":null,"GP_ID":"234637117","SEMIMAJOR_AXIS":"6925.354","LAUNCH_DATE":"2020-02-17","OBJECT_NAME":"STARLINK-1246","MEAN_ELEMENT_THEORY":"SGP4","ELEMENT_SET_NO":"999","REF_FRAME":"TEME","APOAPSIS":"547.962"},{"OBJECT_TYPE":"PAYLOAD","MEAN_MOTION_DDOT":"0.0000000000000","INCLINATION":"53.0535","MEAN_MOTION":"15.06414139","PERIOD":"95.591","FILE":"3945945","SITE":"AFETR","MEAN_ANOMALY":"260.2191","PERIAPSIS":"546.115","TLE_LINE1":"1 45236U 20012BL  23180.76741968  .00004050  00000-0  29053-3 0  9998","ARG_OF_PERICENTER":"99.8970","ECCENTRICITY":"0.00015240","EPHEMERIS_TYPE":"0","CENTER_NAME":"EARTH","TIME_SYSTEM":"UTC","NORAD_CAT_ID":"45236","MEAN_MOTION_DOT":"0.00004050","TLE_LINE2":"2 45236  53.0535 103.6171 0001524  99.8970 260.2191 15.06414139186163","EPOCH":"2023-06-29T18:25:05.060352","SEMIMAJOR_AXIS":"6925.305","GP_ID":"234629755","DECAY_DATE":null,"OBJECT_NAME":"STARLINK-1247","LAUNCH_DATE":"2020-02-17","MEAN_ELEMENT_THEORY":"SGP4","APOAPSIS":"548.226","REF_FRAME":"TEME","ELEMENT_SET_NO":"999","CLASSIFICATION_TYPE":"U","RA_OF_ASC_NODE":"103.6171","COUNTRY_CODE":"US","OBJECT_ID":"2020-012BL","BSTAR":"0.00029053000000","REV_AT_EPOCH":"18616","RCS_SIZE":"LARGE"},{"SEMIMAJOR_AXIS":"6925.297","GP_ID":"234630264","DECAY_DATE":null,"OBJECT_NAME":"STARLINK-1270","LAUNCH_DATE":"2020-02-17","MEAN_ELEMENT_THEORY":"SGP4","REF_FRAME":"TEME","APOAPSIS":"549.694","ELEMENT_SET_NO":"999","CLASSIFICATION_TYPE":"U","RA_OF_ASC_NODE":"104.4078","COUNTRY_CODE":"US","BSTAR":"0.00031092000000","OBJECT_ID":"2020-012BM","RCS_SIZE":"LARGE","REV_AT_EPOCH":"18613","OBJECT_TYPE":"PAYLOAD","INCLINATION":"53.0528","MEAN_MOTION":"15.06416947","MEAN_MOTION_DDOT":"0.0000000000000","PERIOD":"95.591","FILE":"3945945","SITE":"AFETR","PERIAPSIS":"544.629","MEAN_ANOMALY":"210.8590","ARG_OF_PERICENTER":"149.2614","TLE_LINE1":"1 45237U 20012BM  23180.59049103  .00004354  00000-0  31092-3 0  9995","TIME_SYSTEM":"UTC","CENTER_NAME":"EARTH","ECCENTRICITY":"0.00036570","EPHEMERIS_TYPE":"0","MEAN_MOTION_DOT":"0.00004354","NORAD_CAT_ID":"45237","EPOCH":"2023-06-29T14:10:18.424992","TLE_LINE2":"2 45237  53.0528 104.4078 0003657 149.2614 210.8590 15.06416947186135"},{"EPHEMERIS_TYPE":"0","ECCENTRICITY":"0.00009530","CENTER_NAME":"EARTH","TIME_SYSTEM":"UTC","TLE_LINE1":"1 45360U 20019A   23180.41633989  .00006623  00000-0  46294-3 0  9992","ARG_OF_PERICENTER":"83.2443","TLE_LINE2":"2 45360  53.0531 235.1923 0000953  83.2443 276.8655 15.06412808181782","EPOCH":"2023-06-29T09:59:31.766496","NORAD_CAT_ID":"45360","MEAN_MOTION_DOT":"0.00006623","SITE":"AFETR","FILE":"3945742","MEAN_ANOMALY":"276.8655","PERIAPSIS":"546.514","MEAN_MOTION_DDOT":"0.0000000000000","INCLINATION":"53.0531","MEAN_MOTION":"15.06412808","OBJECT_TYPE":"PAYLOAD","PERIOD":"95.591","OBJECT_ID":"2020-019A","BSTAR":"0.00046294000000","COUNTRY_CODE":"US","REV_AT_EPOCH":"18178","RCS_SIZE":"LARGE","CLASSIFICATION_TYPE":"U","RA_OF_ASC_NODE":"235.1923","MEAN_ELEMENT_THEORY":"SGP4","ELEMENT_SET_NO":"999","APOAPSIS":"547.834","REF_FRAME":"TEME","GP_ID":"234624455","DECAY_DATE":null,"SEMIMAJOR_AXIS":"6925.309","LAUNCH_DATE":"2020-03-18","OBJECT_NAME":"STARLINK-1279"},{"SITE":"AFETR","FILE":"3945748","MEAN_ANOMALY":"262.8509","PERIAPSIS":"546.499","EPHEMERIS_TYPE":"0","ECCENTRICITY":"0.00009440","TIME_SYSTEM":"UTC","CENTER_NAME":"EARTH","TLE_LINE1":"1 45361U 20019B   23180.47070838  .00011074  00000-0  76074-3 0  9992","ARG_OF_PERICENTER":"97.2587","TLE_LINE2":"2 45361  53.0539 244.9494 0000944  97.2587 262.8509 15.06419932181661","EPOCH":"2023-06-29T11:17:49.204032","NORAD_CAT_ID":"45361","MEAN_MOTION_DOT":"0.00011074","MEAN_MOTION_DDOT":"0.0000000000000","MEAN_MOTION":"15.06419932","INCLINATION":"53.0539","OBJECT_TYPE":"PAYLOAD","PERIOD":"95.591","CLASSIFICATION_TYPE":"U","RA_OF_ASC_NODE":"244.9494","OBJECT_ID":"2020-019B","BSTAR":"0.00076074000000","COUNTRY_CODE":"US","RCS_SIZE":"LARGE","REV_AT_EPOCH":"18166","DECAY_DATE":null,"GP_ID":"234624999","SEMIMAJOR_AXIS":"6925.287","LAUNCH_DATE":"2020-03-18","OBJECT_NAME":"STARLINK-1301","MEAN_ELEMENT_THEORY":"SGP4","ELEMENT_SET_NO":"999","APOAPSIS":"547.806","REF_FRAME":"TEME"},{"APOAPSIS":"547.915","REF_FRAME":"TEME","ELEMENT_SET_NO":"999","MEAN_ELEMENT_THEORY":"SGP4","OBJECT_NAME":"STARLINK-1306","LAUNCH_DATE":"2020-03-18","DECAY_DATE":null,"GP_ID":"234638733","SEMIMAJOR_AXIS":"6925.334","REV_AT_EPOCH":"18156","RCS_SIZE":"LARGE","COUNTRY_CODE":"US","OBJECT_ID":"2020-019C","BSTAR":"0.00023212000000","RA_OF_ASC_NODE":"259.6782","CLASSIFICATION_TYPE":"U","PERIOD":"95.592","OBJECT_TYPE":"PAYLOAD","MEAN_MOTION_DDOT":"0.0000000000000","INCLINATION":"53.0546","MEAN_MOTION":"15.06404880","NORAD_CAT_ID":"45362","MEAN_MOTION_DOT":"0.00003178","TLE_LINE2":"2 45362  53.0546 259.6782 0001035  90.3890 269.7218 15.06404880181564","EPOCH":"2023-06-30T15:28:20.432352","TLE_LINE1":"1 45362U 20019C   23181.64468093  .00003178  00000-0  23212-3 0  9999","ARG_OF_PERICENTER":"90.3890","ECCENTRICITY":"0.00010350","EPHEMERIS_TYPE":"0","CENTER_NAME":"EARTH","TIME_SYSTEM":"UTC","MEAN_ANOMALY":"269.7218","PERIAPSIS":"546.482","FILE":"3946292","SITE":"AFETR"},{"CLASSIFICATION_TYPE":"U","RA_OF_ASC_NODE":"229.0585","BSTAR":"0.00085219000000","OBJECT_ID":"2020-019E","COUNTRY_CODE":"US","RCS_SIZE":"LARGE","REV_AT_EPOCH":"18182","GP_ID":"234618761","DECAY_DATE":null,"SEMIMAJOR_AXIS":"6885.961","LAUNCH_DATE":"2020-03-18","OBJECT_NAME":"STARLINK-1313","MEAN_ELEMENT_THEORY":"SGP4","ELEMENT_SET_NO":"999","REF_FRAME":"TEME","APOAPSIS":"508.466","SITE":"AFETR","FILE":"3945501","PERIAPSIS":"507.185","MEAN_ANOMALY":"54.7560","CENTER_NAME":"EARTH","TIME_SYSTEM":"UTC","EPHEMERIS_TYPE":"0","ECCENTRICITY":"0.00009300","ARG_OF_PERICENTER":"305.3348","TLE_LINE1":"1 45364U 20019E   23179.85313131  .00017959  00000-0  85219-3 0  9990","EPOCH":"2023-06-28T20:28:30.545184","TLE_LINE2":"2 45364  53.0511 229.0585 0000930 305.3348  54.7560 15.19343407181822","MEAN_MOTION_DOT":"0.00017959","NORAD_CAT_ID":"45364","INCLINATION":"53.0511","MEAN_MOTION":"15.19343407","MEAN_MOTION_DDOT":"0.0000000000000","OBJECT_TYPE":"PAYLOAD","PERIOD":"94.778"}];
